#aV2019 10 30  0  0  0.00000000     288 DD+AD WGS84 FIT  NGA
## 2077 259200.00000000   300.00000000 58786 0.0000000000000
+   32     1  2  3  4  5  6  7  8  9 10 11 12 13 14 15 16 17
+         18 19 20 21 22 23 24 25 26 27 28 29 30 31 32  0  0
+          0  0  0  0  0  0  0  0  0  0  0  0  0  0  0  0  0
+          0  0  0  0  0  0  0  0  0  0  0  0  0  0  0  0  0
+          0  0  0  0  0  0  0  0  0  0  0  0  0  0  0  0  0
++         2  2  2  2  2  2  2  2  2  2  2  2  2  2  2  2  2
++         2  2  2  2  2  2  2  2  2  2  2  2  2  2  2  0  0
++         0  0  0  0  0  0  0  0  0  0  0  0  0  0  0  0  0
++         0  0  0  0  0  0  0  0  0  0  0  0  0  0  0  0  0
++         0  0  0  0  0  0  0  0  0  0  0  0  0  0  0  0  0
%c cc cc ccc ccc cccc cccc cccc cccc ccccc ccccc ccccc ccccc
%c cc cc ccc ccc cccc cccc cccc cccc ccccc ccccc ccccc ccccc
%f  0.0000000  0.000000000  0.00000000000  0.000000000000000
%f  0.0000000  0.000000000  0.00000000000  0.000000000000000
%i    0    0    0    0      0      0      0      0         0
%i    0    0    0    0      0      0      0      0         0
/*      NGA, ST. LOUIS,MO.                                  
/*   EPHEMERIS COMPUTED FROM 2 DAYS OF DATA                 
/*   EPOCHA v5 SMOOTHER                                     
/*   G1762 IERS2010 SATAF SATAPC                            
*  2019 10 30 23 40  0.00000000
P  1 -22367.977017 -14639.195197   -536.167519   -180.857629                    
V  1   1439.907392  -1467.069933 -31906.797901     -0.129426                    
P  2   6838.204973  18481.758902  18486.315923   -336.851840                    
V  2 -20188.326575  -9313.150551  17248.001534     -0.078022                    
P  3 -13264.587811 -11828.856375  19706.013985    -29.556065                    
V  3   2061.279864 -25057.462998 -13525.974919     -0.053571                    
P  4 -24157.014681  10965.763746   1115.376457     -4.249575                    
V  4     12.565404  -3185.219826  31705.629651     -0.032628                    
P  5   3897.568033  25562.548074  -5738.536395     -2.885108                    
V  5  -3236.889937   7134.867114  30512.728845     -0.004197                    
P  6  -7928.431775  12583.943056  22049.742750   -108.031069                    
V  6 -23623.037068 -14728.879105    -63.252263     -0.123931                    
P  7 -22649.879818  -3129.846806 -13625.726361   -138.388612                    
V  7 -13657.609980 -11299.623783  24315.719125     -0.081033                    
P  8 -11083.304391 -10780.701428 -21584.302128    -11.728205                    
V  8  23895.902082 -13478.110458  -5319.598101     -0.012989                    
P  9 -24185.004817   5695.716167   9341.844057    -70.741861                    
V  9   9133.489405  -8189.583093  28473.471319     -0.099411                    
P 10  11563.587985 -17794.927313 -15767.739603   -115.371443                    
V 10   1359.415374  20277.814705 -22017.366179     -0.151012                    
P 11 -23109.821690  -9501.099023  -9055.024519   -462.472977                    
V 11  11363.030908  -2902.756729 -27823.787947      0.111887                    
P 12   9891.295086  17324.798410  17400.505089    188.587884                    
V 12  -3650.407868  22150.683711 -19577.805195     -0.039289                    
P 13   1020.651205  15531.175693 -21632.642393    -35.755746                    
V 13 -25572.344252   9198.423939   5496.671456      0.022501                    
P 14  12363.935114 -17474.174452  15931.352581    -53.220342                    
V 14  18872.271174  -6018.338735 -21873.001820      0.020903                    
P 15  13360.533102  10009.060005 -21006.563637   -276.122503                    
V 15 -21411.378746  14900.080718  -6219.364076      0.026920                    
P 16    519.079938 -26032.968674  -4043.094644    -88.390772                    
V 16   3083.992620  -4603.245857  31936.306513     -0.036890                    
P 17 -20430.619833  15171.667514   7874.944771    153.980847                    
V 17  -9362.422377   2202.584590 -30225.120904      0.070546                    
P 18 -18095.176548 -17472.903222  -9178.370308     96.803821                    
V 18  10771.103277   3122.135098 -28675.177646      0.026298                    
P 19 -16155.345635  16133.229152  13293.457430   -246.450240                    
V 19 -16717.936398   4879.311261 -25648.585385      0.052033                    
P 20  14720.333768  -7974.279335 -20687.970655    527.342639                    
V 20   3363.316485  25990.928240  -7853.261165      0.000938                    
P 21  20662.942958  -1546.938861 -15714.214881    -93.847417                    
V 21  17737.190223  12447.261222  21254.676980      0.060627                    
P 22 -11954.075240 -18673.015396  14912.063270   -768.140837                    
V 22   1843.750542 -18707.194392 -22174.516194     -0.028809                    
P 23 -20210.526645  -3237.453474  17473.363273   -158.392529                    
V 23  17897.040503 -11896.713291  18486.124972      0.022023                    
P 24  22134.239630  14751.910278  -3030.649901     -4.225789                    
V 24  -4706.757249   1041.589616 -30704.530542     -0.005568                    
P 25  14896.824350   1632.964949  21720.857857    -16.468299                    
V 25  -1079.956525  28043.932754  -1102.715184     -0.006391                    
P 26   4881.568866 -25159.060778   6556.536088     73.422287                    
V 26   3141.429763   8428.619048  30124.385715      0.084766                    
P 27   1732.227507 -16654.104233 -20652.237759   -104.496430                    
V 27  23387.766191 -11393.948789  11508.821977     -0.120574                    
P 28 -12194.841514  18122.816904 -14582.942340    757.056489                    
V 28    746.821550 -19572.918322 -23850.293806     -0.014523                    
P 29  24062.544075  -2871.166426  10870.291357     57.146389                    
V 29 -11892.273529   7227.875189  28126.127811     -0.100438                    
P 30 -15869.109498   6974.579243 -20140.603201    -73.148978                    
V 30 -20583.913874 -15376.989122  10681.981424     -0.083271                    
P 31   6518.521426 -13887.002080  21637.737858      0.092486                    
V 31  23187.255922  14889.457339   3017.326425     -0.025643                    
P 32  19582.275673 -16343.179664   7225.207394    109.126393                    
V 32   9401.861357  -1805.628377 -29939.918938      0.125144                    
EOF
